#cP2023  7  6  0  0  0.00000000      96 ORBIT IGS20 HLM  IGS
## 2269 345600.00000000   900.00000000 60131 0.0000000000000
+   32   G01G02G03G04G05G06G07G08G09G10G11G12G13G14G15G16G17
+        G18G19G20G21G22G23G24G25G26G27G28G29G30G31G32  0  0
+          0  0  0  0  0  0  0  0  0  0  0  0  0  0  0  0  0
+          0  0  0  0  0  0  0  0  0  0  0  0  0  0  0  0  0
+          0  0  0  0  0  0  0  0  0  0  0  0  0  0  0  0  0
++         2  2  2  2  2  2  2  2  2  2  2  2  2  2  2  2  3
++         2  2  2  2  2  2  2  2  2  2  2  2  2  2  2  0  0
++         0  0  0  0  0  0  0  0  0  0  0  0  0  0  0  0  0
++         0  0  0  0  0  0  0  0  0  0  0  0  0  0  0  0  0
++         0  0  0  0  0  0  0  0  0  0  0  0  0  0  0  0  0
%c G  cc GPS ccc cccc cccc cccc cccc ccccc ccccc ccccc ccccc
%c cc cc ccc ccc cccc cccc cccc cccc ccccc ccccc ccccc ccccc
%f  1.2500000  1.025000000  0.00000000000  0.000000000000000
%f  0.0000000  0.000000000  0.00000000000  0.000000000000000
%i    0    0    0    0      0      0      0      0         0
%i    0    0    0    0      0      0      0      0         0
/* RAPID ORBIT COMBINATION FROM WEIGHTED AVERAGE OF:        
/* cod emr esa gfz grg jgx jpl ngs sio usn whu              
/* REFERENCED TO IGS TIME (IGST) AND TO WEIGHTED MEAN POLE: 
/* PCV:IGS20      OL/AL:FES2014b NONE     Y  ORB:CMB CLK:CMB
*  2023  7  6 15 45  0.00000000
PG01  22150.026104  14995.223008   -614.279929    174.270417  4  2  6  98       
PG02  20608.090911  15514.334874  -6139.696670   -578.850018  6  3  5 100       
PG03  12547.761941  12881.334408  19447.580037   -243.370362  4  5  6  97       
PG04  19711.024798   3927.340719  17433.825988     88.166962  6  2  7  92       
PG05  -5670.355355 -24694.431156  -7955.129726   -133.861653  6  6  6  94       
PG06   8791.517909 -11717.005548  22216.146238    580.246973  7  6  4  84       
PG07  22926.938934   3610.390238 -12873.997224    132.705467  3  6  4  99       
PG08   9913.616779  11895.395731 -21679.344753   -130.861143  3  3  4  99       
PG09  23997.274783  -5194.914275  10107.101291   -118.736219  5  4  6  88       
PG10 -11055.910790  18238.036215 -15446.026846    -44.082999  4  8  6  98       
PG11  -6379.773898 -19126.184229  17317.196174   -264.739447  5  6  5  89       
PG12 -10384.667209 -16786.497299  17531.294062   -397.421566  6  6  6  77       
PG13   -696.501278 -15543.881870 -21681.703929    543.587933  6  5  4  68       
PG14  13366.079399 -15169.788083 -17124.333230    113.753140  3  6  5  90       
PG15 -12015.533401 -10959.420479 -21489.563963     55.514217  3  2  4 103       
PG16     82.251257  25921.708404  -4842.240916   -483.817818  5  7  6  95       
PG17  21522.289891 -14477.790821   6404.597973    720.355011  8  9  4  65       
PG18 -21344.610241  -1091.133960 -15876.528015   -335.384512  6  6  6  96       
PG19  16941.278614 -15848.686208  12415.668343    340.262065  7  8  2  84       
PG20  -1401.416113 -26474.445610   2867.622273    424.128312  4  7  8  90       
PG21  19183.820063  16638.884335  -8624.371309    152.443507  6  3  4 104       
PG22 -13399.000880  17320.117005  15372.067180    508.803221  5  3  6  96       
PG23 -14595.324487   5662.069950 -21427.368132     40.397820  6  7  6 101       
PG24 -21221.715008 -15487.870914  -5573.584907   -249.013945  4  3  7 104       
PG25 -15085.526309  -3209.236531  21329.154556    454.430414  4  5     98       
PG26  -4930.967572  24718.114453   7683.740431    237.240632  4  2  2  74       
PG27  -2586.435886  17175.367553 -20225.720343      2.330744  2  5  4  95       
PG28 -10546.822855  11300.919577  21578.256232     83.274680  4  5  7  81       
PG29 -23919.795292   1949.511531  11436.201694   -604.843646  5  6  6  69       
PG30  17557.526060  -5511.718303 -19120.910675   -506.190046  4  6  6  96       
PG31    530.101658  17258.776582  19887.429109   -219.562593  5  3  3  83       
PG32 -19167.878761  16558.071603   7831.149309   -515.602979  5  5  2  97       
*  2023  7  6 16  0  0.00000000
PG01  21909.428064  15016.856687  -3493.986338    174.268526  4  2  6 101       
PG02  19688.862518  15318.218025  -8824.911745   -578.846652  6  2  4 101       
PG03  12429.862817  15037.760878  17937.666899   -243.356711  4  5  6 103       
PG04  17931.824017   5008.691496  18997.666012     88.176632  5  1  7  96       
PG05  -5467.079469 -25437.338253  -5214.711798   -133.862683  6  7  6  91       
PG06  10933.679730 -10419.737787  21916.816912    580.244249  7  6  4  83       
PG07  24013.839103   4504.374409 -10521.479124    132.695804  3  6  4 109       
PG08   7799.536505  13172.880334 -21769.640948   -130.863431  3  3  4  99       
PG09  22995.148195  -4328.667347  12531.742403   -118.727936  5  3  6  86       
PG10 -11203.158996  16321.750802 -17371.113302    -44.083797  4  6  6 100       
PG11  -4575.594734 -18104.568421  18909.605955   -264.753795  5  7  5  96       
PG12 -10079.041960 -18714.179535  15697.446283   -397.425800  6  6  6  80       
PG13   1559.009942 -16378.191991 -20987.666963    543.592362  6  5  4  47       
PG14  13460.552121 -13103.417140 -18697.141641    113.764083  3  5  6  89       
PG15 -10140.630124 -12423.416581 -21639.653457     55.517606  4  3  3  96       
PG16   -223.934114  26256.526657  -1987.312440   -483.814172  4  8  7 109       
PG17  22078.106362 -14528.646629   3604.328761    720.356225  7  7  5  55       
PG18 -22706.063113  -2098.668094 -13758.586383   -335.397522  5  6  7  88       
PG19  18234.546814 -16177.928207   9927.307505    340.266624  7  8  1  84       
PG20  -1058.568153 -26043.586182   5633.918192    424.126598  4  8  8  86       
PG21  18045.571939  16296.052510 -11123.970526    152.442890  6  3  3 106       
PG22 -14902.124933  17812.489988  13194.299654    508.808276  5  5  6  92       
PG23 -14692.460480   3186.857331 -21881.389530     40.401409  5  6  6 107       
PG24 -20433.515375 -15424.252494  -8203.016333   -249.025212  4  3  7 106       
PG25 -15063.540724  -5688.623125  20852.655673    454.432558  5  5  2  95       
PG26  -5325.928837  23687.179824  10239.702278    237.239647  3  3  2  90       
PG27  -4554.444109  18169.106910 -18916.758978      2.323817  2  5  5  97       
PG28 -12672.486071  10098.342151  21024.030737     83.273912  4  5  7  84       
PG29 -22685.439168   1179.152998  13793.370511   -604.844479  5  6  6  79       
PG30  19309.198768  -4289.810741 -17726.422623   -506.187629  4  6  6  99       
PG31  -1550.794523  16106.594973  20809.799580   -219.563316  5  3  2  84       
PG32 -19921.830907  16698.872245   5094.785674   -515.610082  6  5  2  98       
*  2023  7  6 16 15  0.00000000
PG01  21388.955131  14900.950418  -6315.117935    174.266687  4  3  6 102       
PG02  18481.459865  15060.807710 -11356.480913   -578.843504  6  2  4  98       
PG03  12421.001393  17006.450667  16117.064311   -243.343029  4  4  6  95       
PG04  16075.817996   6264.591517  20236.049753     88.186277  6  2  7  84       
PG05  -5270.542702 -25876.380682  -2384.310376   -133.864124  6  7  6 121       
PG06  13096.431434  -9271.865798  21242.777086    580.241475  7  6  4  72       
PG07  24897.397331   5211.020697  -7988.675597    132.686188  3  6  5 110       
PG08   5760.231966  14554.412351 -21487.593571   -130.864640  3  3  4  94       
PG09  21821.926657  -3263.351255  14740.301081   -118.719615  5  2  6  71       
PG10 -11465.124082  14214.181681 -18989.651694    -44.085551  4  6  6 117       
PG11  -2579.191129 -17099.261888  20177.200155   -264.768090  5  7  6  87       
PG12  -9879.745071 -20428.121541  13589.251213   -397.429942  6  7  7  83       
PG13   3679.791487 -17291.804611 -19936.833225    543.596833  6  6  5  91       
PG14  13661.126191 -10885.610457 -19946.174339    113.774837  3  4  6  95       
PG15  -8340.166093 -13977.147823 -21432.648567     55.520711  4  3  3 103       
PG16   -503.649315  26278.522118    902.678243   -483.810091  5  8  7 102       
PG17  22355.123769 -14449.586678    742.854948    720.356718  7  6  5  31       
PG18 -23896.765248  -2911.626606 -11405.765945   -335.410525  5  6  7  93       
PG19  19244.445114 -16441.700237   7263.388115    340.271037  6  8  1  92       
PG20   -627.175592 -25332.216820   8304.403953    424.124733  4  8  7  88       
PG21  16632.699930  15915.732307 -13435.848953    152.442847  5  4  3 104       
PG22 -16155.018252  18260.847811  10793.290017    508.813485  5  6  6  87       
PG23 -14926.004448    692.102829 -21958.412260     40.405030  4  6  6 110       
PG24 -19380.730424 -15291.656888 -10696.305187   -249.036499  3  3  7 108       
PG25 -15161.065483  -8087.138568  20008.537751    454.434713  5  6  2  94       
PG26  -5802.341564  22397.402572  12615.184063    237.238714  3  4  3  67       
PG27  -6332.571395  19176.329885 -17284.535575      2.316909  1  5  5 101       
PG28 -14782.326424   9043.287158  20107.381654     83.273193  5  6  7  95       
PG29 -21272.181842    219.583640  15913.568602   -604.845469  5  7  5  97       
PG30  20960.854492  -3236.113551 -16026.898984   -506.185248  4  6  6 100       
PG31  -3758.089411  15021.705486  21365.927962   -219.563762  5  4  2  92       
PG32 -20405.908045  16702.815583   2270.047877   -515.617209  6  5  2 102       
EOF
